{
  "type": "FeatureCollection",
  "features": [
    {
      "type": "Feature",
      "properties": {
        "norad_id": 66767,
        "name": "TRANSPORTER-15DF",
        "group": "last-30-days",
        "lat": -18.9850772333696,
        "lon": -110.0994392538514,
        "alt_km": 516.5279947900699,
        "timestamp": "2025-12-26T22:28:04.497824+00:00",
        "meta_object_name": "TRANSPORTER-15DF",
        "meta_object_id": "2025-276DF",
        "meta_epoch": "2025-12-26T18:25:51.242016",
        "meta_mean_motion": 15.18364475,
        "meta_eccentricity": 0.0002055,
        "meta_inclination": 97.4364,
        "meta_ra_of_asc_node": 72.3107,
        "meta_arg_of_pericenter": 86.0552,
        "meta_mean_anomaly": 274.0917,
        "meta_ephemeris_type": 0,
        "meta_classification_type": "U",
        "meta_norad_cat_id": 66767,
        "meta_element_set_no": 999,
        "meta_rev_at_epoch": 425,
        "meta_bstar": 0.00023021,
        "meta_mean_motion_dot": 4.663e-05,
        "meta_mean_motion_ddot": 0,
        "tle_line1": "1 66767U 25276DF  25360.76795419  .00004663  00000+0  23021-3 0  9997",
        "tle_line2": "2 66767  97.4364  72.3107 0002055  86.0552 274.0917 15.18364475  4250"
      },
      "geometry": {
        "type": "Point",
        "coordinates": [
          -110.0994392538514,
          -18.9850772333696
        ]
      }
    },
    {
      "type": "Feature",
      "properties": {
        "norad_id": 66768,
        "name": "TRANSPORTER-15DG",
        "group": "last-30-days",
        "lat": -33.34820660354314,
        "lon": -112.45224376007285,
        "alt_km": 517.4709926876594,
        "timestamp": "2025-12-26T22:28:04.497834+00:00",
        "meta_object_name": "TRANSPORTER-15DG",
        "meta_object_id": "2025-276DG",
        "meta_epoch": "2025-12-26T18:22:03.463104",
        "meta_mean_motion": 15.18583124,
        "meta_eccentricity": 0.000207,
        "meta_inclination": 97.4349,
        "meta_ra_of_asc_node": 72.3097,
        "meta_arg_of_pericenter": 72.2862,
        "meta_mean_anomaly": 287.8598,
        "meta_ephemeris_type": 0,
        "meta_classification_type": "U",
        "meta_norad_cat_id": 66768,
        "meta_element_set_no": 999,
        "meta_rev_at_epoch": 425,
        "meta_bstar": 0.00045501,
        "meta_mean_motion_dot": 9.346e-05,
        "meta_mean_motion_ddot": 0,
        "tle_line1": "1 66768U 25276DG  25360.76531786  .00009346  00000+0  45501-3 0  9993",
        "tle_line2": "2 66768  97.4349  72.3097 0002070  72.2862 287.8598 15.18583124  4251"
      },
      "geometry": {
        "type": "Point",
        "coordinates": [
          -112.45224376007285,
          -33.34820660354314
        ]
      }
    },
    {
      "type": "Feature",
      "properties": {
        "norad_id": 66769,
        "name": "TRANSPORTER-15DH",
        "group": "last-30-days",
        "lat": -26.785364237430652,
        "lon": -111.28706879128801,
        "alt_km": 516.8591175606989,
        "timestamp": "2025-12-26T22:28:04.497844+00:00",
        "meta_object_name": "TRANSPORTER-15DH",
        "meta_object_id": "2025-276DH",
        "meta_epoch": "2025-12-26T18:23:47.624352",
        "meta_mean_motion": 15.18451424,
        "meta_eccentricity": 0.0002724,
        "meta_inclination": 97.441,
        "meta_ra_of_asc_node": 72.329,
        "meta_arg_of_pericenter": 100.9563,
        "meta_mean_anomaly": 259.1977,
        "meta_ephemeris_type": 0,
        "meta_classification_type": "U",
        "meta_norad_cat_id": 66769,
        "meta_element_set_no": 999,
        "meta_rev_at_epoch": 425,
        "meta_bstar": 0.00031207,
        "meta_mean_motion_dot": 6.362e-05,
        "meta_mean_motion_ddot": 0,
        "tle_line1": "1 66769U 25276DH  25360.76652343  .00006362  00000+0  31207-3 0  9990",
        "tle_line2": "2 66769  97.4410  72.3290 0002724 100.9563 259.1977 15.18451424  4259"
      },
      "geometry": {
        "type": "Point",
        "coordinates": [
          -111.28706879128801,
          -26.785364237430652
        ]
      }
    },
    {
      "type": "Feature",
      "properties": {
        "norad_id": 66770,
        "name": "TRANSPORTER-15DJ",
        "group": "last-30-days",
        "lat": -28.212057498122302,
        "lon": -111.51457756005189,
        "alt_km": 516.6648497604046,
        "timestamp": "2025-12-26T22:28:04.497854+00:00",
        "meta_object_name": "TRANSPORTER-15DJ",
        "meta_object_id": "2025-276DJ",
        "meta_epoch": "2025-12-26T15:13:37.185024",
        "meta_mean_motion": 15.184193,
        "meta_eccentricity": 0.0003252,
        "meta_inclination": 97.4439,
        "meta_ra_of_asc_node": 72.2106,
        "meta_arg_of_pericenter": 115.3243,
        "meta_mean_anomaly": 244.8328,
        "meta_ephemeris_type": 0,
        "meta_classification_type": "U",
        "meta_norad_cat_id": 66770,
        "meta_element_set_no": 999,
        "meta_rev_at_epoch": 423,
        "meta_bstar": 0.00059826,
        "meta_mean_motion_dot": 0.00012256,
        "meta_mean_motion_ddot": 0,
        "tle_line1": "1 66770U 25276DJ  25360.63445816  .00012256  00000+0  59826-3 0  9999",
        "tle_line2": "2 66770  97.4439  72.2106 0003252 115.3243 244.8328 15.18419300  4235"
      },
      "geometry": {
        "type": "Point",
        "coordinates": [
          -111.51457756005189,
          -28.212057498122302
        ]
      }
    },
    {
      "type": "Feature",
      "properties": {
        "norad_id": 66771,
        "name": "TRANSPORTER-15DK",
        "group": "last-30-days",
        "lat": -31.799732083149646,
        "lon": -112.14268395368488,
        "alt_km": 516.9956907089954,
        "timestamp": "2025-12-26T22:28:04.497866+00:00",
        "meta_object_name": "TRANSPORTER-15DK",
        "meta_object_id": "2025-276DK",
        "meta_epoch": "2025-12-26T15:12:41.261760",
        "meta_mean_motion": 15.18513229,
        "meta_eccentricity": 0.000303,
        "meta_inclination": 97.4435,
        "meta_ra_of_asc_node": 72.2093,
        "meta_arg_of_pericenter": 108.2696,
        "meta_mean_anomaly": 251.8868,
        "meta_ephemeris_type": 0,
        "meta_classification_type": "U",
        "meta_norad_cat_id": 66771,
        "meta_element_set_no": 999,
        "meta_rev_at_epoch": 423,
        "meta_bstar": 0.00036363,
        "meta_mean_motion_dot": 7.438e-05,
        "meta_mean_motion_ddot": 0,
        "tle_line1": "1 66771U 25276DK  25360.63381090  .00007438  00000+0  36363-3 0  9990",
        "tle_line2": "2 66771  97.4435  72.2093 0003030 108.2696 251.8868 15.18513229  4236"
      },
      "geometry": {
        "type": "Point",
        "coordinates": [
          -112.14268395368488,
          -31.799732083149646
        ]
      }
    },
    {
      "type": "Feature",
      "properties": {
        "norad_id": 66772,
        "name": "TRANSPORTER-15DL",
        "group": "last-30-days",
        "lat": -47.50335257118556,
        "lon": -115.69297570433514,
        "alt_km": 517.893935316456,
        "timestamp": "2025-12-26T22:28:04.497877+00:00",
        "meta_object_name": "TRANSPORTER-15DL",
        "meta_object_id": "2025-276DL",
        "meta_epoch": "2025-12-26T16:43:25.364640",
        "meta_mean_motion": 15.18749428,
        "meta_eccentricity": 0.0002903,
        "meta_inclination": 97.4427,
        "meta_ra_of_asc_node": 72.2743,
        "meta_arg_of_pericenter": 93.425,
        "meta_mean_anomaly": 266.7316,
        "meta_ephemeris_type": 0,
        "meta_classification_type": "U",
        "meta_norad_cat_id": 66772,
        "meta_element_set_no": 999,
        "meta_rev_at_epoch": 424,
        "meta_bstar": 0.00061051,
        "meta_mean_motion_dot": 0.00012629,
        "meta_mean_motion_ddot": 0,
        "tle_line1": "1 66772U 25276DL  25360.69682135  .00012629  00000+0  61051-3 0  9991",
        "tle_line2": "2 66772  97.4427  72.2743 0002903  93.4250 266.7316 15.18749428  4245"
      },
      "geometry": {
        "type": "Point",
        "coordinates": [
          -115.69297570433514,
          -47.50335257118556
        ]
      }
    },
    {
      "type": "Feature",
      "properties": {
        "norad_id": 66773,
        "name": "TRANSPORTER-15DM",
        "group": "last-30-days",
        "lat": -38.75511707925649,
        "lon": -113.51795311511476,
        "alt_km": 517.8549610248647,
        "timestamp": "2025-12-26T22:28:04.497887+00:00",
        "meta_object_name": "TRANSPORTER-15DM",
        "meta_object_id": "2025-276DM",
        "meta_epoch": "2025-12-26T18:20:37.062240",
        "meta_mean_motion": 15.18574615,
        "meta_eccentricity": 0.0003063,
        "meta_inclination": 97.4422,
        "meta_ra_of_asc_node": 72.3361,
        "meta_arg_of_pericenter": 95.0551,
        "meta_mean_anomaly": 265.1033,
        "meta_ephemeris_type": 0,
        "meta_classification_type": "U",
        "meta_norad_cat_id": 66773,
        "meta_element_set_no": 999,
        "meta_rev_at_epoch": 425,
        "meta_bstar": 0.00053947,
        "meta_mean_motion_dot": 0.00011093,
        "meta_mean_motion_ddot": 0,
        "tle_line1": "1 66773U 25276DM  25360.76431785  .00011093  00000+0  53947-3 0  9992",
        "tle_line2": "2 66773  97.4422  72.3361 0003063  95.0551 265.1033 15.18574615  4252"
      },
      "geometry": {
        "type": "Point",
        "coordinates": [
          -113.51795311511476,
          -38.75511707925649
        ]
      }
    }
  ]
}